{
    "links": {
        "self": "http://www.neowsapp.com/rest/v1/neo/3601410?api_key=iIulBulltgU6a56xZRHN4H3l9WmuAYTsLGpBGhQ2"
    },
    "id": "3601410",
    "neo_reference_id": "3601410",
    "name": "(2012 FN)",
    "designation": "2012 FN",
    "nasa_jpl_url": "http://ssd.jpl.nasa.gov/sbdb.cgi?sstr=3601410",
    "absolute_magnitude_h": 29.2,
    "estimated_diameter": {
        "kilometers": {
            "estimated_diameter_min": 0.0038419789,
            "estimated_diameter_max": 0.008590926
        },
        "meters": {
            "estimated_diameter_min": 3.8419789106,
            "estimated_diameter_max": 8.5909260123
        },
        "miles": {
            "estimated_diameter_min": 0.0023872943,
            "estimated_diameter_max": 0.0053381523
        },
        "feet": {
            "estimated_diameter_min": 12.6049180892,
            "estimated_diameter_max": 28.1854536983
        }
    },
    "is_potentially_hazardous_asteroid": false,
    "close_approach_data": [
        {
            "close_approach_date": "2012-03-09",
            "close_approach_date_full": "2012-Mar-09 21:33",
            "epoch_date_close_approach": 1331328780000,
            "relative_velocity": {
                "kilometers_per_second": "3.3177496219",
                "kilometers_per_hour": "11943.898638711",
                "miles_per_hour": "7421.474129148"
            },
            "miss_distance": {
                "astronomical": "0.0170089526",
                "lunar": "6.6164825614",
                "kilometers": "2544503.079890962",
                "miles": "1581080.8981487956"
            },
            "orbiting_body": "Earth"
        }
    ],
    "orbital_data": {
        "orbit_id": "4",
        "orbit_determination_date": "2017-04-06 08:50:27",
        "first_observation_date": "2012-03-17",
        "last_observation_date": "2012-03-17",
        "data_arc_in_days": null,
        "observations_used": 17,
        "orbit_uncertainty": "9",
        "minimum_orbit_intersection": ".0156126",
        "jupiter_tisserand_invariant": "5.210",
        "epoch_osculation": "2456003.5",
        "eccentricity": ".1870690736281031",
        "semi_major_axis": "1.221448703783289",
        "inclination": "3.233225757444992",
        "ascending_node_longitude": "356.9089059224142",
        "orbital_period": "493.0730618895508",
        "perihelion_distance": ".9929534262823021",
        "perihelion_argument": "147.9150705557848",
        "aphelion_distance": "1.449943981284276",
        "perihelion_time": "2455973.741000019810",
        "mean_anomaly": "21.72748994198386",
        "mean_motion": ".730114921752997",
        "equinox": "J2000",
        "orbit_class": {
            "orbit_class_type": "APO",
            "orbit_class_description": "Near-Earth asteroid orbits which cross the Earth’s orbit similar to that of 1862 Apollo",
            "orbit_class_range": "a (semi-major axis) > 1.0 AU; q (perihelion) < 1.017 AU"
        }
    },
    "is_sentry_object": false
}